INTELSAT 10 (IS-10)     
1 26766U 01019A   26073.94411667 -.00000056  00000+0  00000+0 0  9994
2 26766   8.8498  60.2068 0005537 274.9671 273.7301  0.99038038 44645
INTELSAT 902 (IS-902)   
1 26900U 01039A   26074.23599802 -.00000281  00000+0  00000+0 0  9997
2 26900   5.8807  72.9221 0004610 282.8784 211.8848  1.00270786 89752
INTELSAT 904 (IS-904)   
1 27380U 02007A   26074.24996151 -.00000222  00000+0  00000+0 0  9990
2 27380   6.6844  70.3042 0006670 316.1798 204.8684  1.00270746 50824
DIRECTV 5 (TEMPO 1)     
1 27426U 02023A   26074.11719073 -.00000055  00000+0  00000+0 0  9995
2 27426   4.6361  76.4781 0003450 285.2772 103.0551  1.00272211 87186
INTELSAT 905 (IS-905)   
1 27438U 02027A   26067.69374378  .00000095  00000+0  00000+0 0  9995
2 27438   6.5009  71.0066 0003104 285.0028 282.9238  1.00272811 50358
GALAXY 3C (G-3C)        
1 27445U 02030A   26074.19155104 -.00000152  00000+0  00000+0 0  9999
2 27445   3.4889  79.2984 0001348  25.3642  42.2613  1.00271863 45558
INTELSAT 906 (IS-906)   
1 27513U 02041A   26074.08035724  .00000016  00000+0  00000+0 0  9998
2 27513   5.5642  74.0727 0003039 278.1044 273.5640  1.00271587 86080
GALAXY 13 (HORIZONS-1)  
1 27954U 03044A   26074.25187130  .00000132  00000+0  00000+0 0  9998
2 27954   1.1757  85.1076 0002212 268.8800 119.5092  1.00271944 45639
INTELSAT 10-02          
1 28358U 04022A   26074.28142477 -.00000012  00000+0  00000+0 0  9990
2 28358   0.0230 118.5092 0001298 292.6884 222.0093  1.00270868 79611
DIRECTV 8               
1 28659U 05019A   26074.25802465  .00000000  00000+0  00000+0 0  9994
2 28659   0.0006 179.3786 0003226 188.7812 138.5269  1.00272525 76132
GALAXY 28 (G-28)        
1 28702U 05022A   26074.27622473 -.00000199  00000+0  00000+0 0  9998
2 28702   3.0554  80.1045 0002138 284.0128 241.1095  1.00273676 51038
GALAXY 16 (G-16)        
1 29236U 06023A   26074.04803044 -.00000127  00000+0  00000+0 0  9994
2 29236   0.0260 214.4338 0002732 153.1175  83.3792  1.00270535 72020
DIRECTV 9S              
1 29494U 06043A   26074.26157800 -.00000113  00000+0  00000+0 0  9993
2 29494   2.1766  82.0525 0003229 286.2370 157.5450  1.00272092 50441
GALAXY 17 (G-17)        
1 31307U 07016B   26074.19345771 -.00000206  00000+0  00000+0 0  9991
2 31307   2.7324  81.0904 0003381 284.0210 152.3255  1.00270961 68865
DIRECTV 10              
1 31862U 07032A   26074.29287869 -.00000188  00000+0  00000+0 0  9998
2 31862   0.1584  98.0671 0006786 281.5438 232.6019  0.98339661 44645
INTELSAT 11 (IS-11)     
1 32253U 07044B   26074.24571794 -.00000163  00000+0  00000+0 0  9997
2 32253   3.3190  79.8158 0004199 210.5363 149.8124  0.99053396 67516
HORIZONS-2              
1 32388U 07063B   26074.24567734 -.00000253  00000+0  00000+0 0  9996
2 32388   2.3582  81.8038 0002403 279.7076 185.9878  1.00272808 66872
