[{"OBJECT_NAME":"INTELSAT 10 (IS-10)","OBJECT_ID":"2001-019A","EPOCH":"2026-03-14T22:39:31.680288","MEAN_MOTION":0.99038038,"ECCENTRICITY":0.00055371,"INCLINATION":8.8498,"RA_OF_ASC_NODE":60.2068,"ARG_OF_PERICENTER":274.9671,"MEAN_ANOMALY":273.7301,"EPHEMERIS_TYPE":0,"CLASSIFICATION_TYPE":"U","NORAD_CAT_ID":26766,"ELEMENT_SET_NO":999,"REV_AT_EPOCH":4464,"BSTAR":0,"MEAN_MOTION_DOT":-5.6e-7,"MEAN_MOTION_DDOT":0},{"OBJECT_NAME":"INTELSAT 902 (IS-902)","OBJECT_ID":"2001-039A","EPOCH":"2026-03-15T05:39:50.228928","MEAN_MOTION":1.00270786,"ECCENTRICITY":0.00046105,"INCLINATION":5.8807,"RA_OF_ASC_NODE":72.9221,"ARG_OF_PERICENTER":282.8784,"MEAN_ANOMALY":211.8848,"EPHEMERIS_TYPE":0,"CLASSIFICATION_TYPE":"U","NORAD_CAT_ID":26900,"ELEMENT_SET_NO":999,"REV_AT_EPOCH":8975,"BSTAR":0,"MEAN_MOTION_DOT":-2.81e-6,"MEAN_MOTION_DDOT":0},{"OBJECT_NAME":"INTELSAT 904 (IS-904)","OBJECT_ID":"2002-007A","EPOCH":"2026-03-15T05:59:56.674464","MEAN_MOTION":1.00270746,"ECCENTRICITY":0.00066709,"INCLINATION":6.6844,"RA_OF_ASC_NODE":70.3042,"ARG_OF_PERICENTER":316.1798,"MEAN_ANOMALY":204.8684,"EPHEMERIS_TYPE":0,"CLASSIFICATION_TYPE":"U","NORAD_CAT_ID":27380,"ELEMENT_SET_NO":999,"REV_AT_EPOCH":5082,"BSTAR":0,"MEAN_MOTION_DOT":-2.22e-6,"MEAN_MOTION_DDOT":0},{"OBJECT_NAME":"DIRECTV 5 (TEMPO 1)","OBJECT_ID":"2002-023A","EPOCH":"2026-03-15T02:48:45.279072","MEAN_MOTION":1.00272211,"ECCENTRICITY":0.00034509,"INCLINATION":4.6361,"RA_OF_ASC_NODE":76.4781,"ARG_OF_PERICENTER":285.2772,"MEAN_ANOMALY":103.0551,"EPHEMERIS_TYPE":0,"CLASSIFICATION_TYPE":"U","NORAD_CAT_ID":27426,"ELEMENT_SET_NO":999,"REV_AT_EPOCH":8718,"BSTAR":0,"MEAN_MOTION_DOT":-5.5e-7,"MEAN_MOTION_DDOT":0},{"OBJECT_NAME":"INTELSAT 905 (IS-905)","OBJECT_ID":"2002-027A","EPOCH":"2026-03-08T16:38:59.462592","MEAN_MOTION":1.00272811,"ECCENTRICITY":0.00031045,"INCLINATION":6.5009,"RA_OF_ASC_NODE":71.0066,"ARG_OF_PERICENTER":285.0028,"MEAN_ANOMALY":282.9238,"EPHEMERIS_TYPE":0,"CLASSIFICATION_TYPE":"U","NORAD_CAT_ID":27438,"ELEMENT_SET_NO":999,"REV_AT_EPOCH":5035,"BSTAR":0,"MEAN_MOTION_DOT":9.5e-7,"MEAN_MOTION_DDOT":0},{"OBJECT_NAME":"GALAXY 3C (G-3C)","OBJECT_ID":"2002-030A","EPOCH":"2026-03-15T04:35:50.009856","MEAN_MOTION":1.00271863,"ECCENTRICITY":0.00013486,"INCLINATION":3.4889,"RA_OF_ASC_NODE":79.2984,"ARG_OF_PERICENTER":25.3642,"MEAN_ANOMALY":42.2613,"EPHEMERIS_TYPE":0,"CLASSIFICATION_TYPE":"U","NORAD_CAT_ID":27445,"ELEMENT_SET_NO":999,"REV_AT_EPOCH":4555,"BSTAR":0,"MEAN_MOTION_DOT":-1.52e-6,"MEAN_MOTION_DDOT":0},{"OBJECT_NAME":"INTELSAT 906 (IS-906)","OBJECT_ID":"2002-041A","EPOCH":"2026-03-15T01:55:42.865536","MEAN_MOTION":1.00271587,"ECCENTRICITY":0.00030393,"INCLINATION":5.5642,"RA_OF_ASC_NODE":74.0727,"ARG_OF_PERICENTER":278.1044,"MEAN_ANOMALY":273.564,"EPHEMERIS_TYPE":0,"CLASSIFICATION_TYPE":"U","NORAD_CAT_ID":27513,"ELEMENT_SET_NO":999,"REV_AT_EPOCH":8608,"BSTAR":0,"MEAN_MOTION_DOT":1.6e-7,"MEAN_MOTION_DDOT":0},{"OBJECT_NAME":"GALAXY 13 (HORIZONS-1)","OBJECT_ID":"2003-044A","EPOCH":"2026-03-15T06:02:41.680320","MEAN_MOTION":1.00271944,"ECCENTRICITY":0.00022124,"INCLINATION":1.1757,"RA_OF_ASC_NODE":85.1076,"ARG_OF_PERICENTER":268.88,"MEAN_ANOMALY":119.5092,"EPHEMERIS_TYPE":0,"CLASSIFICATION_TYPE":"U","NORAD_CAT_ID":27954,"ELEMENT_SET_NO":999,"REV_AT_EPOCH":4563,"BSTAR":0,"MEAN_MOTION_DOT":1.32e-6,"MEAN_MOTION_DDOT":0},{"OBJECT_NAME":"INTELSAT 10-02","OBJECT_ID":"2004-022A","EPOCH":"2026-03-15T06:45:15.100128","MEAN_MOTION":1.00270868,"ECCENTRICITY":0.00012989,"INCLINATION":0.023,"RA_OF_ASC_NODE":118.5092,"ARG_OF_PERICENTER":292.6884,"MEAN_ANOMALY":222.0093,"EPHEMERIS_TYPE":0,"CLASSIFICATION_TYPE":"U","NORAD_CAT_ID":28358,"ELEMENT_SET_NO":999,"REV_AT_EPOCH":7961,"BSTAR":0,"MEAN_MOTION_DOT":-1.2e-7,"MEAN_MOTION_DDOT":0},{"OBJECT_NAME":"DIRECTV 8","OBJECT_ID":"2005-019A","EPOCH":"2026-03-15T06:11:33.329760","MEAN_MOTION":1.00272525,"ECCENTRICITY":0.00032261,"INCLINATION":0.0006,"RA_OF_ASC_NODE":179.3786,"ARG_OF_PERICENTER":188.7812,"MEAN_ANOMALY":138.5269,"EPHEMERIS_TYPE":0,"CLASSIFICATION_TYPE":"U","NORAD_CAT_ID":28659,"ELEMENT_SET_NO":999,"REV_AT_EPOCH":7613,"BSTAR":0,"MEAN_MOTION_DOT":0,"MEAN_MOTION_DDOT":0},{"OBJECT_NAME":"GALAXY 28 (G-28)","OBJECT_ID":"2005-022A","EPOCH":"2026-03-15T06:37:45.816672","MEAN_MOTION":1.00273676,"ECCENTRICITY":0.00021381,"INCLINATION":3.0554,"RA_OF_ASC_NODE":80.1045,"ARG_OF_PERICENTER":284.0128,"MEAN_ANOMALY":241.1095,"EPHEMERIS_TYPE":0,"CLASSIFICATION_TYPE":"U","NORAD_CAT_ID":28702,"ELEMENT_SET_NO":999,"REV_AT_EPOCH":5103,"BSTAR":0,"MEAN_MOTION_DOT":-1.99e-6,"MEAN_MOTION_DDOT":0},{"OBJECT_NAME":"GALAXY 16 (G-16)","OBJECT_ID":"2006-023A","EPOCH":"2026-03-15T01:09:09.830016","MEAN_MOTION":1.00270535,"ECCENTRICITY":0.00027326,"INCLINATION":0.026,"RA_OF_ASC_NODE":214.4338,"ARG_OF_PERICENTER":153.1175,"MEAN_ANOMALY":83.3792,"EPHEMERIS_TYPE":0,"CLASSIFICATION_TYPE":"U","NORAD_CAT_ID":29236,"ELEMENT_SET_NO":999,"REV_AT_EPOCH":7202,"BSTAR":0,"MEAN_MOTION_DOT":-1.27e-6,"MEAN_MOTION_DDOT":0},{"OBJECT_NAME":"DIRECTV 9S","OBJECT_ID":"2006-043A","EPOCH":"2026-03-15T06:16:40.339200","MEAN_MOTION":1.00272092,"ECCENTRICITY":0.00032293,"INCLINATION":2.1766,"RA_OF_ASC_NODE":82.0525,"ARG_OF_PERICENTER":286.237,"MEAN_ANOMALY":157.545,"EPHEMERIS_TYPE":0,"CLASSIFICATION_TYPE":"U","NORAD_CAT_ID":29494,"ELEMENT_SET_NO":999,"REV_AT_EPOCH":5044,"BSTAR":0,"MEAN_MOTION_DOT":-1.13e-6,"MEAN_MOTION_DDOT":0},{"OBJECT_NAME":"GALAXY 17 (G-17)","OBJECT_ID":"2007-016B","EPOCH":"2026-03-15T04:38:34.746144","MEAN_MOTION":1.00270961,"ECCENTRICITY":0.00033818,"INCLINATION":2.7324,"RA_OF_ASC_NODE":81.0904,"ARG_OF_PERICENTER":284.021,"MEAN_ANOMALY":152.3255,"EPHEMERIS_TYPE":0,"CLASSIFICATION_TYPE":"U","NORAD_CAT_ID":31307,"ELEMENT_SET_NO":999,"REV_AT_EPOCH":6886,"BSTAR":0,"MEAN_MOTION_DOT":-2.06e-6,"MEAN_MOTION_DDOT":0},{"OBJECT_NAME":"DIRECTV 10","OBJECT_ID":"2007-032A","EPOCH":"2026-03-15T07:01:44.718816","MEAN_MOTION":0.98339661,"ECCENTRICITY":0.00067867,"INCLINATION":0.1584,"RA_OF_ASC_NODE":98.0671,"ARG_OF_PERICENTER":281.5438,"MEAN_ANOMALY":232.6019,"EPHEMERIS_TYPE":0,"CLASSIFICATION_TYPE":"U","NORAD_CAT_ID":31862,"ELEMENT_SET_NO":999,"REV_AT_EPOCH":4464,"BSTAR":0,"MEAN_MOTION_DOT":-1.88e-6,"MEAN_MOTION_DDOT":0},{"OBJECT_NAME":"INTELSAT 11 (IS-11)","OBJECT_ID":"2007-044B","EPOCH":"2026-03-15T05:53:50.030016","MEAN_MOTION":0.99053396,"ECCENTRICITY":0.00041998,"INCLINATION":3.319,"RA_OF_ASC_NODE":79.8158,"ARG_OF_PERICENTER":210.5363,"MEAN_ANOMALY":149.8124,"EPHEMERIS_TYPE":0,"CLASSIFICATION_TYPE":"U","NORAD_CAT_ID":32253,"ELEMENT_SET_NO":999,"REV_AT_EPOCH":6751,"BSTAR":0,"MEAN_MOTION_DOT":-1.63e-6,"MEAN_MOTION_DDOT":0},{"OBJECT_NAME":"HORIZONS-2","OBJECT_ID":"2007-063B","EPOCH":"2026-03-15T05:53:46.522176","MEAN_MOTION":1.00272808,"ECCENTRICITY":0.00024031,"INCLINATION":2.3582,"RA_OF_ASC_NODE":81.8038,"ARG_OF_PERICENTER":279.7076,"MEAN_ANOMALY":185.9878,"EPHEMERIS_TYPE":0,"CLASSIFICATION_TYPE":"U","NORAD_CAT_ID":32388,"ELEMENT_SET_NO":999,"REV_AT_EPOCH":6687,"BSTAR":0,"MEAN_MOTION_DOT":-2.53e-6,"MEAN_MOTION_DDOT":0}]
